IRIDIUM 126             
1 42809U 17039G   25237.60920154  .00000222  00000+0  72258-4 0  9992
2 42809  86.3965 117.2323 0001935  80.1427 279.9987 14.34219826427588
IRIDIUM 124             
1 42810U 17039H   25237.56436173  .00000094  00000+0  21997-4 0  9993
2 42810  86.4449  53.9381 0002343  92.4988 267.6482 14.43280595432479
IRIDIUM 128             
1 42811U 17039J   25237.25109765 -.00000150  00000+0 -60454-4 0  9990
2 42811  86.4028 148.8744 0002563  86.1501 273.9988 14.34216619427566
IRIDIUM 121             
1 42812U 17039K   25237.62822741  .00000185  00000+0  58913-4 0  9991
2 42812  86.3964 117.2513 0002270  84.8087 275.3368 14.34217255427462
IRIDIUM 133             
1 42955U 17061A   25237.28280923 -.00000013  00000+0 -11627-4 0  9999
2 42955  86.4028 148.9718 0002081  84.9530 275.1904 14.34217933412364
IRIDIUM 100             
1 42956U 17061B   25237.27646665  .00000284  00000+0  94318-4 0  9994
2 42956  86.4025 148.9003 0002185  88.9253 271.2193 14.34217638412369
IRIDIUM 122             
1 42957U 17061C   25237.24475394  .00000048  00000+0  99563-5 0  9997
2 42957  86.4025 148.9129 0002131  85.8849 274.2590 14.34217807412369
IRIDIUM 129             
1 42958U 17061D   25237.27012343  .00000022  00000+0  64826-6 0  9999
2 42958  86.4028 148.9658 0001873  72.5972 287.5428 14.34217772412382
